<?xml version="1.0" encoding="UTF-8"?>
<ndm xmlns:xsi="http://www.w3.org/2001/XMLSchema-instance" xsi:noNamespaceSchemaLocation="https://sanaregistry.org/r/ndmxml_unqualified/ndmxml-2.0.0-master-2.0.xsd">
<omm id="CCSDS_OMM_VERS" version="2.0">
<header><CREATION_DATE/><ORIGINATOR/></header><body><segment><metadata><OBJECT_NAME>KUIPER-00044</OBJECT_NAME><OBJECT_ID>2025-134F</OBJECT_ID><CENTER_NAME>EARTH</CENTER_NAME><REF_FRAME>TEME</REF_FRAME><TIME_SYSTEM>UTC</TIME_SYSTEM><MEAN_ELEMENT_THEORY>SGP4</MEAN_ELEMENT_THEORY></metadata><data><meanElements><EPOCH>2025-12-17T03:51:53.763552</EPOCH><MEAN_MOTION>14.79902328</MEAN_MOTION><ECCENTRICITY>.00117234</ECCENTRICITY><INCLINATION>51.9007</INCLINATION><RA_OF_ASC_NODE>251.5340</RA_OF_ASC_NODE><ARG_OF_PERICENTER>2.8767</ARG_OF_PERICENTER><MEAN_ANOMALY>357.2260</MEAN_ANOMALY></meanElements><tleParameters><EPHEMERIS_TYPE>0</EPHEMERIS_TYPE><CLASSIFICATION_TYPE>U</CLASSIFICATION_TYPE><NORAD_CAT_ID>64505</NORAD_CAT_ID><ELEMENT_SET_NO>999</ELEMENT_SET_NO><REV_AT_EPOCH>2766</REV_AT_EPOCH><BSTAR>-.85278738E-3</BSTAR><MEAN_MOTION_DOT>-.6722E-4</MEAN_MOTION_DOT><MEAN_MOTION_DDOT>0</MEAN_MOTION_DDOT></tleParameters></data></segment></body></omm>
<omm id="CCSDS_OMM_VERS" version="2.0">
<header><CREATION_DATE/><ORIGINATOR/></header><body><segment><metadata><OBJECT_NAME>KUIPER-00046</OBJECT_NAME><OBJECT_ID>2025-134G</OBJECT_ID><CENTER_NAME>EARTH</CENTER_NAME><REF_FRAME>TEME</REF_FRAME><TIME_SYSTEM>UTC</TIME_SYSTEM><MEAN_ELEMENT_THEORY>SGP4</MEAN_ELEMENT_THEORY></metadata><data><meanElements><EPOCH>2025-12-17T03:42:51.708960</EPOCH><MEAN_MOTION>14.80662754</MEAN_MOTION><ECCENTRICITY>.00126675</ECCENTRICITY><INCLINATION>51.8986</INCLINATION><RA_OF_ASC_NODE>247.9192</RA_OF_ASC_NODE><ARG_OF_PERICENTER>12.6022</ARG_OF_PERICENTER><MEAN_ANOMALY>347.5255</MEAN_ANOMALY></meanElements><tleParameters><EPHEMERIS_TYPE>0</EPHEMERIS_TYPE><CLASSIFICATION_TYPE>U</CLASSIFICATION_TYPE><NORAD_CAT_ID>64506</NORAD_CAT_ID><ELEMENT_SET_NO>999</ELEMENT_SET_NO><REV_AT_EPOCH>2771</REV_AT_EPOCH><BSTAR>.53662872E-3</BSTAR><MEAN_MOTION_DOT>.3945E-4</MEAN_MOTION_DOT><MEAN_MOTION_DDOT>0</MEAN_MOTION_DDOT></tleParameters></data></segment></body></omm>
<omm id="CCSDS_OMM_VERS" version="2.0">
<header><CREATION_DATE/><ORIGINATOR/></header><body><segment><metadata><OBJECT_NAME>KUIPER-00047</OBJECT_NAME><OBJECT_ID>2025-134H</OBJECT_ID><CENTER_NAME>EARTH</CENTER_NAME><REF_FRAME>TEME</REF_FRAME><TIME_SYSTEM>UTC</TIME_SYSTEM><MEAN_ELEMENT_THEORY>SGP4</MEAN_ELEMENT_THEORY></metadata><data><meanElements><EPOCH>2025-12-17T07:59:09.403872</EPOCH><MEAN_MOTION>14.83012659</MEAN_MOTION><ECCENTRICITY>.00088828</ECCENTRICITY><INCLINATION>51.8980</INCLINATION><RA_OF_ASC_NODE>218.7355</RA_OF_ASC_NODE><ARG_OF_PERICENTER>30.2816</ARG_OF_PERICENTER><MEAN_ANOMALY>329.8659</MEAN_ANOMALY></meanElements><tleParameters><EPHEMERIS_TYPE>0</EPHEMERIS_TYPE><CLASSIFICATION_TYPE>U</CLASSIFICATION_TYPE><NORAD_CAT_ID>64507</NORAD_CAT_ID><ELEMENT_SET_NO>999</ELEMENT_SET_NO><REV_AT_EPOCH>2813</REV_AT_EPOCH><BSTAR>.38074225E-3</BSTAR><MEAN_MOTION_DOT>.2899E-4</MEAN_MOTION_DOT><MEAN_MOTION_DDOT>0</MEAN_MOTION_DDOT></tleParameters></data></segment></body></omm>
<omm id="CCSDS_OMM_VERS" version="2.0">
<header><CREATION_DATE/><ORIGINATOR/></header><body><segment><metadata><OBJECT_NAME>KUIPER-00048</OBJECT_NAME><OBJECT_ID>2025-134J</OBJECT_ID><CENTER_NAME>EARTH</CENTER_NAME><REF_FRAME>TEME</REF_FRAME><TIME_SYSTEM>UTC</TIME_SYSTEM><MEAN_ELEMENT_THEORY>SGP4</MEAN_ELEMENT_THEORY></metadata><data><meanElements><EPOCH>2025-12-17T01:26:36.906432</EPOCH><MEAN_MOTION>14.79923207</MEAN_MOTION><ECCENTRICITY>.0003354</ECCENTRICITY><INCLINATION>51.8981</INCLINATION><RA_OF_ASC_NODE>220.9718</RA_OF_ASC_NODE><ARG_OF_PERICENTER>139.8915</ARG_OF_PERICENTER><MEAN_ANOMALY>220.2295</MEAN_ANOMALY></meanElements><tleParameters><EPHEMERIS_TYPE>0</EPHEMERIS_TYPE><CLASSIFICATION_TYPE>U</CLASSIFICATION_TYPE><NORAD_CAT_ID>64508</NORAD_CAT_ID><ELEMENT_SET_NO>999</ELEMENT_SET_NO><REV_AT_EPOCH>2808</REV_AT_EPOCH><BSTAR>.12281914E-2</BSTAR><MEAN_MOTION_DOT>.9152E-4</MEAN_MOTION_DOT><MEAN_MOTION_DDOT>0</MEAN_MOTION_DDOT></tleParameters></data></segment></body></omm>
<omm id="CCSDS_OMM_VERS" version="2.0">
<header><CREATION_DATE/><ORIGINATOR/></header><body><segment><metadata><OBJECT_NAME>KUIPER-00049</OBJECT_NAME><OBJECT_ID>2025-134K</OBJECT_ID><CENTER_NAME>EARTH</CENTER_NAME><REF_FRAME>TEME</REF_FRAME><TIME_SYSTEM>UTC</TIME_SYSTEM><MEAN_ELEMENT_THEORY>SGP4</MEAN_ELEMENT_THEORY></metadata><data><meanElements><EPOCH>2025-12-17T02:42:00.546912</EPOCH><MEAN_MOTION>14.79927212</MEAN_MOTION><ECCENTRICITY>.00027911</ECCENTRICITY><INCLINATION>51.8994</INCLINATION><RA_OF_ASC_NODE>234.2110</RA_OF_ASC_NODE><ARG_OF_PERICENTER>27.0685</ARG_OF_PERICENTER><MEAN_ANOMALY>333.0422</MEAN_ANOMALY></meanElements><tleParameters><EPHEMERIS_TYPE>0</EPHEMERIS_TYPE><CLASSIFICATION_TYPE>U</CLASSIFICATION_TYPE><NORAD_CAT_ID>64509</NORAD_CAT_ID><ELEMENT_SET_NO>999</ELEMENT_SET_NO><REV_AT_EPOCH>2790</REV_AT_EPOCH><BSTAR>.47517661E-3</BSTAR><MEAN_MOTION_DOT>.3402E-4</MEAN_MOTION_DOT><MEAN_MOTION_DDOT>0</MEAN_MOTION_DDOT></tleParameters></data></segment></body></omm>
<omm id="CCSDS_OMM_VERS" version="2.0">
<header><CREATION_DATE/><ORIGINATOR/></header><body><segment><metadata><OBJECT_NAME>KUIPER-00050</OBJECT_NAME><OBJECT_ID>2025-134L</OBJECT_ID><CENTER_NAME>EARTH</CENTER_NAME><REF_FRAME>TEME</REF_FRAME><TIME_SYSTEM>UTC</TIME_SYSTEM><MEAN_ELEMENT_THEORY>SGP4</MEAN_ELEMENT_THEORY></metadata><data><meanElements><EPOCH>2025-12-17T01:13:52.726080</EPOCH><MEAN_MOTION>14.96717305</MEAN_MOTION><ECCENTRICITY>.00049136</ECCENTRICITY><INCLINATION>51.8898</INCLINATION><RA_OF_ASC_NODE>227.4367</RA_OF_ASC_NODE><ARG_OF_PERICENTER>51.3384</ARG_OF_PERICENTER><MEAN_ANOMALY>308.8024</MEAN_ANOMALY></meanElements><tleParameters><EPHEMERIS_TYPE>0</EPHEMERIS_TYPE><CLASSIFICATION_TYPE>U</CLASSIFICATION_TYPE><NORAD_CAT_ID>64510</NORAD_CAT_ID><ELEMENT_SET_NO>999</ELEMENT_SET_NO><REV_AT_EPOCH>2799</REV_AT_EPOCH><BSTAR>.43179167E-3</BSTAR><MEAN_MOTION_DOT>.4732E-4</MEAN_MOTION_DOT><MEAN_MOTION_DDOT>0</MEAN_MOTION_DDOT></tleParameters></data></segment></body></omm>
<omm id="CCSDS_OMM_VERS" version="2.0">
<header><CREATION_DATE/><ORIGINATOR/></header><body><segment><metadata><OBJECT_NAME>KUIPER-00051</OBJECT_NAME><OBJECT_ID>2025-134M</OBJECT_ID><CENTER_NAME>EARTH</CENTER_NAME><REF_FRAME>TEME</REF_FRAME><TIME_SYSTEM>UTC</TIME_SYSTEM><MEAN_ELEMENT_THEORY>SGP4</MEAN_ELEMENT_THEORY></metadata><data><meanElements><EPOCH>2025-12-17T02:45:45.300960</EPOCH><MEAN_MOTION>14.79933801</MEAN_MOTION><ECCENTRICITY>.00029433</ECCENTRICITY><INCLINATION>51.8992</INCLINATION><RA_OF_ASC_NODE>231.7646</RA_OF_ASC_NODE><ARG_OF_PERICENTER>36.7123</ARG_OF_PERICENTER><MEAN_ANOMALY>323.4040</MEAN_ANOMALY></meanElements><tleParameters><EPHEMERIS_TYPE>0</EPHEMERIS_TYPE><CLASSIFICATION_TYPE>U</CLASSIFICATION_TYPE><NORAD_CAT_ID>64511</NORAD_CAT_ID><ELEMENT_SET_NO>999</ELEMENT_SET_NO><REV_AT_EPOCH>2793</REV_AT_EPOCH><BSTAR>-.23520114E-3</BSTAR><MEAN_MOTION_DOT>-.2014E-4</MEAN_MOTION_DOT><MEAN_MOTION_DDOT>0</MEAN_MOTION_DDOT></tleParameters></data></segment></body></omm>
<omm id="CCSDS_OMM_VERS" version="2.0">
<header><CREATION_DATE/><ORIGINATOR/></header><body><segment><metadata><OBJECT_NAME>KUIPER-00052</OBJECT_NAME><OBJECT_ID>2025-134N</OBJECT_ID><CENTER_NAME>EARTH</CENTER_NAME><REF_FRAME>TEME</REF_FRAME><TIME_SYSTEM>UTC</TIME_SYSTEM><MEAN_ELEMENT_THEORY>SGP4</MEAN_ELEMENT_THEORY></metadata><data><meanElements><EPOCH>2025-12-16T18:29:23.627904</EPOCH><MEAN_MOTION>15.72544565</MEAN_MOTION><ECCENTRICITY>.00030338</ECCENTRICITY><INCLINATION>51.8603</INCLINATION><RA_OF_ASC_NODE>174.2323</RA_OF_ASC_NODE><ARG_OF_PERICENTER>106.3222</ARG_OF_PERICENTER><MEAN_ANOMALY>253.8114</MEAN_ANOMALY></meanElements><tleParameters><EPHEMERIS_TYPE>0</EPHEMERIS_TYPE><CLASSIFICATION_TYPE>U</CLASSIFICATION_TYPE><NORAD_CAT_ID>64512</NORAD_CAT_ID><ELEMENT_SET_NO>999</ELEMENT_SET_NO><REV_AT_EPOCH>2869</REV_AT_EPOCH><BSTAR>.97287555E-3</BSTAR><MEAN_MOTION_DOT>.134518E-2</MEAN_MOTION_DOT><MEAN_MOTION_DDOT>0</MEAN_MOTION_DDOT></tleParameters></data></segment></body></omm>

</ndm>
