KUIPER-00044            
1 64505U 25134F   25351.16103893 -.00006722  00000+0 -85279-3 0  9994
2 64505  51.9007 251.5340 0011723   2.8767 357.2260 14.79902328 27669
KUIPER-00046            
1 64506U 25134G   25351.15476515  .00003945  00000+0  53663-3 0  9992
2 64506  51.8986 247.9192 0012667  12.6022 347.5255 14.80662754 27710
KUIPER-00047            
1 64507U 25134H   25351.33274773  .00002899  00000+0  38074-3 0  9991
2 64507  51.8980 218.7355 0008882  30.2816 329.8659 14.83012659 28137
KUIPER-00048            
1 64508U 25134J   25351.06014938  .00009152  00000+0  12282-2 0  9998
2 64508  51.8981 220.9718 0003354 139.8915 220.2295 14.79923207 28081
KUIPER-00049            
1 64509U 25134K   25351.11250633  .00003402  00000+0  47518-3 0  9992
2 64509  51.8994 234.2110 0002791  27.0685 333.0422 14.79927212 27901
KUIPER-00050            
1 64510U 25134L   25351.05130470  .00004732  00000+0  43179-3 0  9999
2 64510  51.8898 227.4367 0004913  51.3384 308.8024 14.96717305 27994
KUIPER-00051            
1 64511U 25134M   25351.11510765 -.00002014  00000+0 -23520-3 0  9997
2 64511  51.8992 231.7646 0002943  36.7123 323.4040 14.79933801 27934
KUIPER-00052            
1 64512U 25134N   25350.77041236  .00134518  00000+0  97288-3 0  9996
2 64512  51.8603 174.2323 0003033 106.3222 253.8114 15.72544565 28693
